HAWK-2C                 
1 47502U 21006CT  26068.67595434  .00008129  00000+0  25493-3 0  9997
2 47502  97.2417 114.9961 0006943 184.0877 176.0310 15.33286436284247
STARLINK-36121          
1 66940U 25286R   26068.20377004  .00017854  00000+0  61351-3 0  9996
2 66940  53.1624   0.6176 0001001 112.7165 247.3942 15.30198288 15342
